NORAD_CAT_ID,OBJECT_NAME,OBJECT_TYPE,EPOCH,MEAN_MOTION,ECCENTRICITY,INCLINATION,RA_OF_ASC_NODE,ARG_OF_PERICENTER,MEAN_ANOMALY,BSTAR,MEAN_MOTION_DOT,MEAN_MOTION_DDOT,TLE_LINE0,TLE_LINE1,TLE_LINE2,SEMIMAJOR_AXIS,PERIOD,APOGEE,PERIGEE,DECAYED
54104.0,STARLINK-5203,PAYLOAD,2022-11-17 14:00:01,15.73155864,0.0003488,53.2153,9.4296,12.3602,334.4994,0.00067605,0.0009518,0.0,0 STARLINK-5203,1 54104U 22136BF  22321.58334491  .00095180  00000-0  67605-3 0  9995,2 54104  53.2153   9.4296 0003488  12.3602 334.4994 15.73155864  1307,6728.021,91.536,352.233,347.539,0.0
54104.0,STARLINK-5203,PAYLOAD,2022-11-17 22:00:00,15.73224605,0.0003171,53.2153,7.7782,10.357,65.4249,-0.00030233,-0.00042894,0.0,0 STARLINK-5203,1 54104U 22136BF  22321.91667824 -.00042894  00000-0 -30233-3 0  9994,2 54104  53.2153   7.7782 0003171  10.3570  65.4249 15.73224605  4957,6727.825,91.532,351.8230000000001,347.557,0.0
54104.0,STARLINK-5203,PAYLOAD,2022-11-18 14:00:01,15.73138608,0.0003486,53.2155,4.4812,6.6818,246.9519,0.00072056,0.00101489,0.0,0 STARLINK-5203,1 54104U 22136BF  22322.58334491  .00101489  00000-0  72056-3 0  9992,2 54104  53.2155   4.4812 0003486   6.6818 246.9519 15.73138608  1308,6728.07,91.537,352.281,347.59,0.0
54104.0,STARLINK-5203,PAYLOAD,2022-11-18 22:00:00,15.73187199,0.0003315,53.2157,2.8296,9.4918,333.0484,0.00054834,0.00077017,0.0,0 STARLINK-5203,1 54104U 22136BF  22322.91667824  .00077017  00000-0  54834-3 0  9991,2 54104  53.2157   2.8296 0003315   9.4918 333.0484 15.73187199  5112,6727.932,91.534,352.027,347.566,0.0
54104.0,STARLINK-5203,PAYLOAD,2022-11-19 14:00:01,15.7322704,0.000371,53.215,359.5325,14.2347,146.2132,-1.404e-05,-2.597e-05,0.0,0 STARLINK-5203,1 54104U 22136BF  22323.58334491 -.00002597  00000-0 -14040-4 0  9995,2 54104  53.2150 359.5325 0003710  14.2347 146.2132 15.73227040  1300,6727.818,91.532,352.17900000000014,347.18699999999984,0.0
54104.0,STARLINK-5203,PAYLOAD,2022-11-19 22:00:00,15.73189106,0.0003417,53.215,357.8809,12.6882,236.7275,0.00038729,0.0005407,0.0,0 STARLINK-5203,1 54104U 22136BF  22323.91667824  .00054070  00000-0  38729-3 0  9991,2 54104  53.2150 357.8809 0003417  12.6882 236.7275 15.73189106  1301,6727.926,91.534,352.09,347.492,0.0
54104.0,STARLINK-5203,PAYLOAD,2022-11-20 14:00:01,15.73215659,0.0003664,53.215,354.5838,8.263,59.0436,-0.00024038,-0.00034259,0.0,0 STARLINK-5203,1 54104U 22136BF  22324.58334491 -.00034259  00000-0 -24038-3 0  9993,2 54104  53.2150 354.5838 0003664   8.2630  59.0436 15.73215659  5372,6727.851,91.532,352.181,347.25,0.0
54104.0,STARLINK-5203,PAYLOAD,2022-11-20 22:00:00,15.73168931,0.0003433,53.2153,352.9322,5.7571,150.4906,-0.00014229,-0.00020524,0.0,0 STARLINK-5203,1 54104U 22136BF  22324.91667824 -.00020524  00000-0 -14229-3 0  9990,2 54104  53.2153 352.9322 0003433   5.7571 150.4906 15.73168931  1302,6727.984,91.535,352.158,347.539,0.0
54104.0,STARLINK-5203,PAYLOAD,2022-11-21 14:00:01,15.73180429,0.0003783,53.2145,349.6351,7.184,326.8505,0.00054725,0.00076845,0.0,0 STARLINK-5203,1 54104U 22136BF  22325.58334491  .00076845  00000-0  54725-3 0  9995,2 54104  53.2145 349.6351 0003783   7.1840 326.8505 15.73180429  1301,6727.951,91.534,352.361,347.271,0.0
54104.0,STARLINK-5203,PAYLOAD,2022-11-21 22:00:00,15.73208801,0.0003489,53.2145,347.9835,9.688,53.2892,0.00052074,0.00073145,0.0,0 STARLINK-5203,1 54104U 22136BF  22325.91667824  .00073145  00000-0  52074-3 0  9996,2 54104  53.2145 347.9835 0003489   9.6880  53.2892 15.73208801  1308,6727.87,91.533,352.082,347.38800000000015,0.0
54104.0,STARLINK-5203,PAYLOAD,2022-11-22 06:00:02,15.73280145,0.0003632,53.2146,346.335,11.7774,140.2348,-0.00092396,-0.0012882999999999,0.0,0 STARLINK-5203,1 54104U 22136BF  22326.25002315 -.00128830  00000-0 -92396-3 0  9997,2 54104  53.2146 346.3350 0003632  11.7774 140.2348 15.73280145  5634,6727.667,91.529,351.975,347.088,0.0
54104.0,STARLINK-5203,PAYLOAD,2022-11-22 14:00:01,15.73167407,0.0003788,53.2144,344.686,10.0597,230.9297,0.00038787,0.00054105,0.0,0 STARLINK-5203,1 54104U 22136BF  22326.58335648  .00054105  00000-0  38787-3 0  9996,2 54104  53.2144 344.6860 0003788  10.0597 230.9297 15.73167407  5686,6727.988,91.535,352.402,347.305,0.0
54104.0,STARLINK-5203,PAYLOAD,2022-11-22 22:00:00,15.73179287,0.0003546,53.2147,343.0342,10.3466,319.5015,1.7796e-05,1.873e-05,0.0,0 STARLINK-5203,1 54104U 22136BF  22326.91667824  .00001873  00000-0  17796-4 0  9999,2 54104  53.2147 343.0342 0003546  10.3466 319.5015 15.73179287  5745,6727.954000000002,91.534,352.205,347.43300000000005,0.0
54104.0,STARLINK-5203,PAYLOAD,2022-11-23 14:00:01,15.73199247,0.0003849,53.2141,339.7368,8.952,138.7249,-0.0002287,-0.0003261,0.0,0 STARLINK-5203,1 54104U 22136BF  22327.58334491 -.00032610  00000-0 -22870-3 0  9997,2 54104  53.2141 339.7368 0003849   8.9520 138.7249 15.73199247  1305,6727.897,91.533,352.352,347.173,0.0
54104.0,STARLINK-5203,PAYLOAD,2022-11-23 22:00:00,15.73154014,0.000355,53.2141,338.0853,9.1349,227.4645,0.00063766,0.00089675,0.0,0 STARLINK-5203,1 54104U 22136BF  22327.91667824  .00089675  00000-0  63766-3 0  9993,2 54104  53.2141 338.0853 0003550   9.1349 227.4645 15.73154014  1306,6728.026,91.536,352.28,347.50300000000016,0.0
54104.0,STARLINK-5203,PAYLOAD,2022-11-24 00:00:00,15.73173499,0.0003531,53.2143,337.6728,10.2326,338.5868,0.00053823,0.0007553,0.0,0 STARLINK-5203,1 54104U 22136BF  22328.00001157  .00075530  00000-0  53823-3 0  9993,2 54104  53.2143 337.6728 0003531  10.2326 338.5868 15.73173499  5911,6727.971,91.535,352.211,347.46,0.0
54104.0,STARLINK-5203,PAYLOAD,2022-11-24 14:00:01,15.73183465,0.0003829,53.2143,334.7877,7.2264,47.2387,0.00026809,0.00037154,0.0,0 STARLINK-5203,1 54104U 22136BF  22328.58334491  .00037154  00000-0  26809-3 0  9990,2 54104  53.2143 334.7877 0003829   7.2264  47.2387 15.73183465  6006,6727.941999999999,91.534,352.3830000000001,347.231,0.0
54104.0,STARLINK-5203,PAYLOAD,2022-11-24 22:00:00,15.73205421,0.0003584,53.2146,333.136,8.454,134.9404,0.00028498,0.00039582,0.0,0 STARLINK-5203,1 54104U 22136BF  22328.91667824  .00039582  00000-0  28498-3 0  9999,2 54104  53.2146 333.1360 0003584   8.4540 134.9404 15.73205421  1306,6727.88,91.533,352.156,347.333,0.0
54104.0,STARLINK-5203,PAYLOAD,2022-11-25 14:00:01,15.73237021,0.0003839,53.2143,329.8383,5.5999,315.6994,-0.00036491,-0.00051628,0.0,0 STARLINK-5203,1 54104U 22136BF  22329.58334491 -.00051628  00000-0 -36491-3 0  9993,2 54104  53.2143 329.8383 0003839   5.5999 315.6994 15.73237021  6161,6727.79,91.531,352.237,347.07199999999995,0.0
54104.0,STARLINK-5203,PAYLOAD,2022-11-25 22:00:00,15.73184975,0.0003551,53.2144,328.1869,6.0379,44.2216,0.00072101,0.0010176,0.0,0 STARLINK-5203,1 54104U 22136BF  22329.91667824  .00101760  00000-0  72101-3 0  9998,2 54104  53.2144 328.1869 0003551   6.0379  44.2216 15.73184975  6219,6727.938,91.534,352.19199999999995,347.414,0.0
54104.0,STARLINK-5203,PAYLOAD,2022-11-26 14:00:01,15.73271233,0.00038,53.2146,324.8893,5.0177,223.1721,-0.00072547,-0.00101577,0.0,0 STARLINK-5203,1 54104U 22136BF  22330.58334491 -.00101577  00000-0 -72547-3 0  9996,2 54104  53.2146 324.8893 0003800   5.0177 223.1721 15.73271233  6317,6727.691999999999,91.529,352.11400000000015,347.001,0.0
54104.0,STARLINK-5203,PAYLOAD,2022-11-26 22:00:00,15.73181402,0.0003635,53.215,323.2377,8.2273,308.9428,-3.6285e-05,-5.711e-05,0.0,0 STARLINK-5203,1 54104U 22136BF  22330.91667824 -.00005711  00000-0 -36285-4 0  9995,2 54104  53.2150 323.2377 0003635   8.2273 308.9428 15.73181402  1308,6727.948,91.534,352.259,347.36800000000005,0.0
54104.0,STARLINK-5203,PAYLOAD,2022-11-27 06:00:00,15.73152249,0.000388,53.2151,321.5902,10.9108,35.1647,3.5338e-06,-1.29e-06,0.0,0 STARLINK-5203,1 54104U 22136BF  22331.25001157 -.00000129  00000-0  35338-5 0  9990,2 54104  53.2151 321.5902 0003880  10.9108  35.1647 15.73152249  6420,6728.031,91.536,352.50699999999995,347.286,0.0
54104.0,STARLINK-5203,PAYLOAD,2022-11-27 14:00:01,15.73173563,0.0003923,53.2147,319.9405,11.9864,122.9484,0.00013546,0.00018414,0.0,0 STARLINK-5203,1 54104U 22136BF  22331.58334491  .00018414  00000-0  13546-3 0  9996,2 54104  53.2147 319.9405 0003923  11.9864 122.9484 15.73173563  1300,6727.971,91.535,352.475,347.196,0.0
54104.0,STARLINK-5203,PAYLOAD,2022-11-27 22:00:00,15.73197961,0.0003616,53.2148,318.2895,12.9851,210.8485,0.00020131,0.00027729,0.0,0 STARLINK-5203,1 54104U 22136BF  22331.91667824  .00027729  00000-0  20131-3 0  9999,2 54104  53.2148 318.2895 0003616  12.9851 210.8485 15.73197961  1308,6727.901,91.533,352.199,347.333,0.0
54104.0,STARLINK-5203,PAYLOAD,2022-11-28 00:00:00,15.7323823,0.0003638,53.215,317.8775,12.4629,323.5922,-0.00037467,-0.00052984,0.0,0 STARLINK-5203,1 54104U 22136BF  22332.00001157 -.00052984  00000-0 -37467-3 0  9994,2 54104  53.2150 317.8775 0003638  12.4629 323.5922 15.73238230  6549,6727.786,91.531,352.099,347.204,0.0
54104.0,STARLINK-5203,PAYLOAD,2022-11-28 22:00:01,15.73177364,0.0003621,53.2152,313.3409,10.1354,120.5216,0.00056703,0.00079659,0.0,0 STARLINK-5203,1 54104U 22136BF  22332.91668981  .00079659  00000-0  56703-3 0  9998,2 54104  53.2152 313.3409 0003621  10.1354 120.5216 15.73177364  6684,6727.96,91.534,352.261,347.389,0.0
54104.0,STARLINK-5203,PAYLOAD,2022-11-29 14:00:01,15.73224663,0.0003792,53.2147,310.0432,5.9626,302.579,-0.00052016,-0.00073104,0.0,0 STARLINK-5203,1 54104U 22136BF  22333.58335648 -.00073104  00000-0 -52016-3 0  9997,2 54104  53.2147 310.0432 0003792   5.9626 302.5790 15.73224663  6786,6727.825,91.532,352.241,347.139,0.0
54104.0,STARLINK-5203,PAYLOAD,2022-11-29 22:00:00,15.73171614,0.0003576,53.2148,308.3926,6.6602,30.741,0.00059741,0.00083982,0.0,0 STARLINK-5203,1 54104U 22136BF  22333.91667824  .00083982  00000-0  59741-3 0  9993,2 54104  53.2148 308.3926 0003576   6.6602  30.7410 15.73171614  6840,6727.976,91.535,352.247,347.435,0.0
